OBJECT_NAME,OBJECT_ID,EPOCH,MEAN_MOTION,ECCENTRICITY,INCLINATION,RA_OF_ASC_NODE,ARG_OF_PERICENTER,MEAN_ANOMALY,EPHEMERIS_TYPE,CLASSIFICATION_TYPE,NORAD_CAT_ID,ELEMENT_SET_NO,REV_AT_EPOCH,BSTAR,MEAN_MOTION_DOT,MEAN_MOTION_DDOT
STARLINK-37949,2026-143Y,2026-07-04T04:00:03.999744,15.79803226,.00011987,97.2838,228.9472,80.9600,255.7261,0,U,69671,999,309,-.1616817E-1,-.2531093E-1,0
STARLINK-37946,2026-143Z,2026-07-04T04:11:38.107968,15.80961339,.00013664,97.2832,228.9458,102.0062,258.1359,0,U,69672,999,310,.15718901E-2,.314125E-2,0
TJS-26A,2026-144A,2026-06-23T07:54:55.514880,2.27958502,.73145613,19.5157,324.7456,179.7910,181.1077,0,U,69674,999,2,.31526459E-3,.963E-4,-.166614E-6
CZ-7A R/B,2026-144B,2026-07-04T00:54:48.622464,2.46100043,.71958629,19.4795,320.1669,187.3414,149.4377,0,U,69675,999,28,.81274151E-3,.601429E-2,.1239792E-5
2026-132G,2026-132G,2026-06-27T03:19:26.058720,15.03894241,.00213411,97.6876,241.7399,253.6187,106.2693,0,U,69676,999,227,.61874088E-3,.8509E-4,0
STARLINK-38005,2026-145A,2026-07-04T04:00:03.999744,15.75254872,.00010097,97.2857,31.4586,103.7461,144.6289,0,U,69677,999,265,-.98509714E-3,-.145E-2,0
STARLINK-38009,2026-145B,2026-07-04T04:00:03.999744,15.75212684,.00011373,97.2860,31.4634,96.7938,161.5836,0,U,69678,999,265,-.36796278E-3,-.54716E-3,0
STARLINK-37998,2026-145C,2026-07-04T04:00:03.999744,15.75305184,.0001324,97.2858,31.4695,100.1349,172.1989,0,U,69679,999,265,-.13932194E-2,-.204073E-2,0
STARLINK-37994,2026-145D,2026-07-04T04:00:03.999744,15.75249023,.00014443,97.2853,31.4655,99.9603,164.4117,0,U,69680,999,265,-.10560486E-2,-.15522E-2,0
STARLINK-37992,2026-145E,2026-07-04T04:00:03.999744,15.75250690,.00013727,97.2854,31.4661,94.8554,171.5150,0,U,69681,999,265,-.1074928E-2,-.157952E-2,0
STARLINK-37997,2026-145F,2026-07-04T04:00:03.999744,15.75185636,.00009905,97.2854,31.4678,82.1962,188.1444,0,U,69682,999,265,.24760796E-4,.3564E-4,0
STARLINK-37990,2026-145G,2026-07-04T04:00:03.999744,15.75268606,.00016167,97.2855,31.4664,76.5907,191.6574,0,U,69683,999,265,-.2650738E-3,-.3962E-3,0
STARLINK-37951,2026-145H,2026-07-04T04:00:03.999744,15.75217323,.00016586,97.2856,31.4703,98.4334,175.9376,0,U,69684,999,265,-.31741171E-3,-.4727E-3,0
STARLINK-37957,2026-145J,2026-07-04T04:00:03.999744,15.75251922,.00014389,97.2853,31.4722,99.7356,180.6432,0,U,69685,999,265,-.11236601E-2,-.164983E-2,0
STARLINK-37968,2026-145K,2026-07-04T04:00:03.999744,15.75265866,.00016504,97.2854,31.4873,104.1128,210.2349,0,U,69686,999,265,-.10193943E-2,-.150041E-2,0
STARLINK-37977,2026-145L,2026-07-04T04:00:03.999744,15.75144520,.00008763,97.2856,31.4895,113.1024,205.2699,0,U,69687,999,265,.30702477E-4,.4443E-4,0
STARLINK-37908,2026-145M,2026-07-04T04:00:03.999744,15.75972949,.0001364,97.2855,31.4954,99.2252,230.7443,0,U,69688,999,265,-.84472065E-2,-.1162039E-1,0
STARLINK-37979,2026-145N,2026-07-04T04:00:03.999744,15.75473858,.00015135,97.2854,31.4947,110.0037,222.2395,0,U,69689,999,265,-.32322757E-2,-.462761E-2,0
STARLINK-37940,2026-145P,2026-07-04T04:00:03.999744,15.75131479,.0002013,97.2852,31.4987,92.8981,245.4792,0,U,69690,999,265,-.65423409E-4,-.9853E-4,0
STARLINK-37961,2026-145Q,2026-07-04T04:00:03.999744,15.77243650,.00013916,97.2849,31.5054,94.3547,260.2416,0,U,69691,999,265,-.13307569E-1,-.1894643E-1,0
STARLINK-37787,2026-145R,2026-07-04T04:00:03.999744,15.77873067,.00016194,97.2846,31.5092,96.3126,269.0995,0,U,69692,999,265,-.13758091E-1,-.1998452E-1,0
STARLINK-37962,2026-145S,2026-07-04T04:00:03.999744,15.80059198,.00014912,97.2847,31.5111,85.6534,282.7008,0,U,69693,999,265,-.12223786E-1,-.1966183E-1,0
STARLINK-37953,2026-145T,2026-07-04T04:00:03.999744,15.76278005,.00016434,97.2847,31.5075,90.1830,271.5585,0,U,69694,999,265,-.10385232E-1,-.1438977E-1,0
STARLINK-37926,2026-145U,2026-07-04T04:00:03.999744,15.76500893,.00014134,97.2848,31.5100,104.5024,261.0521,0,U,69695,999,265,-.11798279E-1,-.1623177E-1,0
STARLINK-37959,2026-145V,2026-07-04T04:00:03.999744,15.77599787,.00013685,97.2849,31.5122,96.2049,273.6402,0,U,69696,999,265,-.12607193E-1,-.183265E-1,0
STARLINK-37976,2026-145W,2026-07-04T04:00:03.999744,15.78268980,.00017727,97.2847,31.5176,82.3639,302.0708,0,U,69697,999,265,-.13408705E-1,-.1985123E-1,0
STARLINK-37912,2026-145X,2026-07-04T04:00:03.999744,15.78026399,.00015801,97.2846,31.5215,86.5494,304.4859,0,U,69698,999,265,-.13541809E-1,-.1983087E-1,0
STARLINK-37974,2026-145Y,2026-07-04T04:00:03.999744,15.78179510,.00017587,97.2846,31.5231,89.4792,305.1773,0,U,69699,999,265,-.13433855E-1,-.1981401E-1,0
STARLINK-37955,2026-145Z,2026-07-04T04:00:03.999744,15.77854245,.00017985,97.2847,31.5289,79.7228,329.7319,0,U,69700,999,265,-.13819655E-1,-.2004874E-1,0
STRIX-8,2026-146A,2026-07-04T03:09:25.636608,15.04355606,.00089022,41.9893,74.3785,312.8177,47.1901,0,U,69701,999,111,.45482733E-3,.6271E-4,0
