STARLINK-37949          
1 69671U 26143Y   26185.16671296 -.02531093  00000+0 -16168-1 0  9992
2 69671  97.2838 228.9472 0001198  80.9600 255.7261 15.79803226  3097
STARLINK-37946          
1 69672U 26143Z   26185.17474662  .00314125  00000+0  15719-2 0  9995
2 69672  97.2832 228.9458 0001366 102.0062 258.1359 15.80961339  3100
TJS-26A                 
1 69674U 26144A   26174.32980920  .00009630 -16661-6  31526-3 0  9997
2 69674  19.5157 324.7456 7314561 179.7910 181.1077  2.27958502    21
CZ-7A R/B               
1 69675U 26144B   26185.03806276  .00601429  12398-5  81274-3 0  9999
2 69675  19.4795 320.1669 7195862 187.3414 149.4377  2.46100043   288
2026-132G               
1 69676U 26132G   26178.13849605  .00008509  00000+0  61874-3 0  9998
2 69676  97.6876 241.7399 0021341 253.6187 106.2693 15.03894241  2272
STARLINK-38005          
1 69677U 26145A   26185.16671296 -.00145000  00000+0 -98510-3 0  9990
2 69677  97.2857  31.4586 0001009 103.7461 144.6289 15.75254872  2657
STARLINK-38009          
1 69678U 26145B   26185.16671296 -.00054716  00000+0 -36796-3 0  9992
2 69678  97.2860  31.4634 0001137  96.7938 161.5836 15.75212684  2659
STARLINK-37998          
1 69679U 26145C   26185.16671296 -.00204073  00000+0 -13932-2 0  9992
2 69679  97.2858  31.4695 0001324 100.1349 172.1989 15.75305184  2653
STARLINK-37994          
1 69680U 26145D   26185.16671296 -.00155220  00000+0 -10560-2 0  9997
2 69680  97.2853  31.4655 0001444  99.9603 164.4117 15.75249023  2653
STARLINK-37992          
1 69681U 26145E   26185.16671296 -.00157952  00000+0 -10749-2 0  9991
2 69681  97.2854  31.4661 0001372  94.8554 171.5150 15.75250690  2659
STARLINK-37997          
1 69682U 26145F   26185.16671296  .00003564  00000+0  24761-4 0  9990
2 69682  97.2854  31.4678 0000990  82.1962 188.1444 15.75185636  2653
STARLINK-37990          
1 69683U 26145G   26185.16671296 -.00039620  00000+0 -26507-3 0  9994
2 69683  97.2855  31.4664 0001616  76.5907 191.6574 15.75268606  2654
STARLINK-37951          
1 69684U 26145H   26185.16671296 -.00047270  00000+0 -31741-3 0  9991
2 69684  97.2856  31.4703 0001658  98.4334 175.9376 15.75217323  2658
STARLINK-37957          
1 69685U 26145J   26185.16671296 -.00164983  00000+0 -11237-2 0  9990
2 69685  97.2853  31.4722 0001438  99.7356 180.6432 15.75251922  2650
STARLINK-37968          
1 69686U 26145K   26185.16671296 -.00150041  00000+0 -10194-2 0  9992
2 69686  97.2854  31.4873 0001650 104.1128 210.2349 15.75265866  2652
STARLINK-37977          
1 69687U 26145L   26185.16671296  .00004443  00000+0  30702-4 0  9994
2 69687  97.2856  31.4895 0000876 113.1024 205.2699 15.75144520  2658
STARLINK-37908          
1 69688U 26145M   26185.16671296 -.01162039  00000+0 -84472-2 0  9995
2 69688  97.2855  31.4954 0001364  99.2252 230.7443 15.75972949  2658
STARLINK-37979          
1 69689U 26145N   26185.16671296 -.00462761  00000+0 -32323-2 0  9998
2 69689  97.2854  31.4947 0001513 110.0037 222.2395 15.75473858  2656
STARLINK-37940          
1 69690U 26145P   26185.16671296 -.00009853  00000+0 -65423-4 0  9998
2 69690  97.2852  31.4987 0002013  92.8981 245.4792 15.75131479  2659
STARLINK-37961          
1 69691U 26145Q   26185.16671296 -.01894643  00000+0 -13308-1 0  9991
2 69691  97.2849  31.5054 0001391  94.3547 260.2416 15.77243650  2650
STARLINK-37787          
1 69692U 26145R   26185.16671296 -.01998452  00000+0 -13758-1 0  9994
2 69692  97.2846  31.5092 0001619  96.3126 269.0995 15.77873067  2658
STARLINK-37962          
1 69693U 26145S   26185.16671296 -.01966183  00000+0 -12224-1 0  9998
2 69693  97.2847  31.5111 0001491  85.6534 282.7008 15.80059198  2656
STARLINK-37953          
1 69694U 26145T   26185.16671296 -.01438977  00000+0 -10385-1 0  9990
2 69694  97.2847  31.5075 0001643  90.1830 271.5585 15.76278005  2656
STARLINK-37926          
1 69695U 26145U   26185.16671296 -.01623177  00000+0 -11798-1 0  9998
2 69695  97.2848  31.5100 0001413 104.5024 261.0521 15.76500893  2654
STARLINK-37959          
1 69696U 26145V   26185.16671296 -.01832650  00000+0 -12607-1 0  9997
2 69696  97.2849  31.5122 0001368  96.2049 273.6402 15.77599787  2651
STARLINK-37976          
1 69697U 26145W   26185.16671296 -.01985123  00000+0 -13409-1 0  9993
2 69697  97.2847  31.5176 0001772  82.3639 302.0708 15.78268980  2654
STARLINK-37912          
1 69698U 26145X   26185.16671296 -.01983087  00000+0 -13542-1 0  9999
2 69698  97.2846  31.5215 0001580  86.5494 304.4859 15.78026399  2659
STARLINK-37974          
1 69699U 26145Y   26185.16671296 -.01981401  00000+0 -13434-1 0  9998
2 69699  97.2846  31.5231 0001758  89.4792 305.1773 15.78179510  2655
STARLINK-37955          
1 69700U 26145Z   26185.16671296 -.02004874  00000+0 -13820-1 0  9991
2 69700  97.2847  31.5289 0001798  79.7228 329.7319 15.77854245  2654
STRIX-8                 
1 69701U 26146A   26185.13154672  .00006271  00000+0  45483-3 0  9995
2 69701  41.9893  74.3785 0008902 312.8177  47.1901 15.04355606  1111
